{
  "type": "FeatureCollection",
  "features": [
    {
      "type": "Feature",
      "properties": {
        "norad_id": 31255,
        "name": "FENGYUN 1C DEB",
        "group": "fengyun-1c-debris",
        "lat": 6.726796448992677,
        "lon": 178.45103426798693,
        "alt_km": 777.6457910694289,
        "timestamp": "2025-12-27T22:26:48.884400+00:00",
        "meta_object_name": "FENGYUN 1C DEB",
        "meta_object_id": "1999-025BMM",
        "meta_epoch": "2025-12-26T22:34:07.753728",
        "meta_mean_motion": 14.09751279,
        "meta_eccentricity": 0.027025,
        "meta_inclination": 99.3085,
        "meta_ra_of_asc_node": 178.5297,
        "meta_arg_of_pericenter": 303.8964,
        "meta_mean_anomaly": 53.6765,
        "meta_ephemeris_type": 0,
        "meta_classification_type": "U",
        "meta_norad_cat_id": 31255,
        "meta_element_set_no": 999,
        "meta_rev_at_epoch": 97001,
        "meta_bstar": 0.00040862,
        "meta_mean_motion_dot": 9.53e-06,
        "meta_mean_motion_ddot": 0,
        "tle_line1": "1 31255U 99025BMM 25360.94036752  .00000953  00000+0  40862-3 0  9992",
        "tle_line2": "2 31255  99.3085 178.5297 0270250 303.8964  53.6765 14.09751279970014"
      },
      "geometry": {
        "type": "Point",
        "coordinates": [
          178.45103426798693,
          6.726796448992677
        ]
      }
    },
    {
      "type": "Feature",
      "properties": {
        "norad_id": 31256,
        "name": "FENGYUN 1C DEB",
        "group": "fengyun-1c-debris",
        "lat": -63.01894860837436,
        "lon": 11.46648204724827,
        "alt_km": 1111.2831787204268,
        "timestamp": "2025-12-27T22:26:48.884410+00:00",
        "meta_object_name": "FENGYUN 1C DEB",
        "meta_object_id": "1999-025BMN",
        "meta_epoch": "2025-12-27T00:46:18.927264",
        "meta_mean_motion": 14.03429585,
        "meta_eccentricity": 0.03084447,
        "meta_inclination": 98.6801,
        "meta_ra_of_asc_node": 208.0641,
        "meta_arg_of_pericenter": 73.7822,
        "meta_mean_anomaly": 289.7048,
        "meta_ephemeris_type": 0,
        "meta_classification_type": "U",
        "meta_norad_cat_id": 31256,
        "meta_element_set_no": 999,
        "meta_rev_at_epoch": 65182,
        "meta_bstar": 0.0023983858,
        "meta_mean_motion_dot": 5.687e-05,
        "meta_mean_motion_ddot": 0,
        "tle_line1": "1 31256U 99025BMN 25361.03216351  .00005687  00000+0  23984-2 0  9993",
        "tle_line2": "2 31256  98.6801 208.0641 0308444  73.7822 289.7048 14.03429585651825"
      },
      "geometry": {
        "type": "Point",
        "coordinates": [
          11.46648204724827,
          -63.01894860837436
        ]
      }
    },
    {
      "type": "Feature",
      "properties": {
        "norad_id": 31258,
        "name": "FENGYUN 1C DEB",
        "group": "fengyun-1c-debris",
        "lat": -12.173074132869488,
        "lon": 155.22061792372514,
        "alt_km": 510.9048010322922,
        "timestamp": "2025-12-27T22:26:48.884420+00:00",
        "meta_object_name": "FENGYUN 1C DEB",
        "meta_object_id": "1999-025BMQ",
        "meta_epoch": "2025-12-27T08:33:26.791776",
        "meta_mean_motion": 15.17864428,
        "meta_eccentricity": 0.0008855,
        "meta_inclination": 98.8477,
        "meta_ra_of_asc_node": 152.6192,
        "meta_arg_of_pericenter": 315.645,
        "meta_mean_anomaly": 111.4119,
        "meta_ephemeris_type": 0,
        "meta_classification_type": "U",
        "meta_norad_cat_id": 31258,
        "meta_element_set_no": 999,
        "meta_rev_at_epoch": 97332,
        "meta_bstar": 0.011288,
        "meta_mean_motion_dot": 0.00236111,
        "meta_mean_motion_ddot": 0,
        "tle_line1": "1 31258U 99025BMQ 25361.35656009  .00236111  00000+0  11288-1 0  9999",
        "tle_line2": "2 31258  98.8477 152.6192 0008855 315.6450 111.4119 15.17864428973328"
      },
      "geometry": {
        "type": "Point",
        "coordinates": [
          155.22061792372514,
          -12.173074132869488
        ]
      }
    },
    {
      "type": "Feature",
      "properties": {
        "norad_id": 31259,
        "name": "FENGYUN 1C DEB",
        "group": "fengyun-1c-debris",
        "lat": -4.691984621605903,
        "lon": -99.46671591456052,
        "alt_km": 804.3762606106666,
        "timestamp": "2025-12-27T22:26:48.884430+00:00",
        "meta_object_name": "FENGYUN 1C DEB",
        "meta_object_id": "1999-025BMR",
        "meta_epoch": "2025-12-27T12:01:28.158240",
        "meta_mean_motion": 14.1512004,
        "meta_eccentricity": 0.0065716,
        "meta_inclination": 99.0082,
        "meta_ra_of_asc_node": 80.8409,
        "meta_arg_of_pericenter": 155.4543,
        "meta_mean_anomaly": 337.6791,
        "meta_ephemeris_type": 0,
        "meta_classification_type": "U",
        "meta_norad_cat_id": 31259,
        "meta_element_set_no": 999,
        "meta_rev_at_epoch": 95778,
        "meta_bstar": 0.001756,
        "meta_mean_motion_dot": 3.434e-05,
        "meta_mean_motion_ddot": 0,
        "tle_line1": "1 31259U 99025BMR 25361.50102035  .00003434  00000+0  17560-2 0  9992",
        "tle_line2": "2 31259  99.0082  80.8409 0065716 155.4543 337.6791 14.15120040957781"
      },
      "geometry": {
        "type": "Point",
        "coordinates": [
          -99.46671591456052,
          -4.691984621605903
        ]
      }
    },
    {
      "type": "Feature",
      "properties": {
        "norad_id": 31260,
        "name": "FENGYUN 1C DEB",
        "group": "fengyun-1c-debris",
        "lat": -2.6541314516359162,
        "lon": -100.10216959501098,
        "alt_km": 784.5929663491324,
        "timestamp": "2025-12-27T22:26:48.884440+00:00",
        "meta_object_name": "FENGYUN 1C DEB",
        "meta_object_id": "1999-025BMS",
        "meta_epoch": "2025-12-27T11:36:12.901824",
        "meta_mean_motion": 14.36510807,
        "meta_eccentricity": 0.0046351,
        "meta_inclination": 98.956,
        "meta_ra_of_asc_node": 259.0094,
        "meta_arg_of_pericenter": 248.601,
        "meta_mean_anomaly": 293.1727,
        "meta_ephemeris_type": 0,
        "meta_classification_type": "U",
        "meta_norad_cat_id": 31260,
        "meta_element_set_no": 999,
        "meta_rev_at_epoch": 97405,
        "meta_bstar": 0.0010937,
        "meta_mean_motion_dot": 3.203e-05,
        "meta_mean_motion_ddot": 0,
        "tle_line1": "1 31260U 99025BMS 25361.48348266  .00003203  00000+0  10937-2 0  9994",
        "tle_line2": "2 31260  98.9560 259.0094 0046351 248.6010 293.1727 14.36510807974051"
      },
      "geometry": {
        "type": "Point",
        "coordinates": [
          -100.10216959501098,
          -2.6541314516359162
        ]
      }
    },
    {
      "type": "Feature",
      "properties": {
        "norad_id": 31261,
        "name": "FENGYUN 1C DEB",
        "group": "fengyun-1c-debris",
        "lat": -32.35952972948581,
        "lon": 130.36858394431127,
        "alt_km": 731.682285586432,
        "timestamp": "2025-12-27T22:26:48.884450+00:00",
        "meta_object_name": "FENGYUN 1C DEB",
        "meta_object_id": "1999-025BMT",
        "meta_epoch": "2025-12-27T03:07:16.859136",
        "meta_mean_motion": 14.40166545,
        "meta_eccentricity": 0.00501578,
        "meta_inclination": 99.017,
        "meta_ra_of_asc_node": 315.2956,
        "meta_arg_of_pericenter": 189.4287,
        "meta_mean_anomaly": 170.5962,
        "meta_ephemeris_type": 0,
        "meta_classification_type": "U",
        "meta_norad_cat_id": 31261,
        "meta_element_set_no": 999,
        "meta_rev_at_epoch": 97557,
        "meta_bstar": 0.0010531579,
        "meta_mean_motion_dot": 3.331e-05,
        "meta_mean_motion_ddot": 0,
        "tle_line1": "1 31261U 99025BMT 25361.13005624  .00003331  00000+0  10532-2 0  9998",
        "tle_line2": "2 31261  99.0170 315.2956 0050157 189.4287 170.5962 14.40166545975578"
      },
      "geometry": {
        "type": "Point",
        "coordinates": [
          130.36858394431127,
          -32.35952972948581
        ]
      }
    },
    {
      "type": "Feature",
      "properties": {
        "norad_id": 31262,
        "name": "FENGYUN 1C DEB",
        "group": "fengyun-1c-debris",
        "lat": 63.007210379491724,
        "lon": -76.26411024210196,
        "alt_km": 805.618590154394,
        "timestamp": "2025-12-27T22:26:48.884460+00:00",
        "meta_object_name": "FENGYUN 1C DEB",
        "meta_object_id": "1999-025BMU",
        "meta_epoch": "2025-12-27T05:14:21.435360",
        "meta_mean_motion": 14.18280327,
        "meta_eccentricity": 0.0054131,
        "meta_inclination": 99.001,
        "meta_ra_of_asc_node": 84.8788,
        "meta_arg_of_pericenter": 57.0044,
        "meta_mean_anomaly": 359.2131,
        "meta_ephemeris_type": 0,
        "meta_classification_type": "U",
        "meta_norad_cat_id": 31262,
        "meta_element_set_no": 999,
        "meta_rev_at_epoch": 95914,
        "meta_bstar": 0.0017015,
        "meta_mean_motion_dot": 3.51e-05,
        "meta_mean_motion_ddot": 0,
        "tle_line1": "1 31262U 99025BMU 25361.21830365  .00003510  00000+0  17015-2 0  9998",
        "tle_line2": "2 31262  99.0010  84.8788 0054131  57.0044 359.2131 14.18280327959140"
      },
      "geometry": {
        "type": "Point",
        "coordinates": [
          -76.26411024210196,
          63.007210379491724
        ]
      }
    }
  ]
}